#aV2019  5  6  0  0  0.00000000     288 DD+AD WGS84 FIT  NGA
## 2052  86400.00000000   300.00000000 58609 0.0000000000000
+   31     1  2  3  5  6  7  8  9 10 11 12 13 14 15 16 17 18
+         19 20 21 22 23 24 25 26 27 28 29 30 31 32  0  0  0
+          0  0  0  0  0  0  0  0  0  0  0  0  0  0  0  0  0
+          0  0  0  0  0  0  0  0  0  0  0  0  0  0  0  0  0
+          0  0  0  0  0  0  0  0  0  0  0  0  0  0  0  0  0
++         2  2  2  2  2  2  2  2  2  2  2  2  2  2  2  2  2
++         2  2  2  2  2  2  2  2  2  2  2  2  2  2  0  0  0
++         0  0  0  0  0  0  0  0  0  0  0  0  0  0  0  0  0
++         0  0  0  0  0  0  0  0  0  0  0  0  0  0  0  0  0
++         0  0  0  0  0  0  0  0  0  0  0  0  0  0  0  0  0
%c cc cc ccc ccc cccc cccc cccc cccc ccccc ccccc ccccc ccccc
%c cc cc ccc ccc cccc cccc cccc cccc ccccc ccccc ccccc ccccc
%f  0.0000000  0.000000000  0.00000000000  0.000000000000000
%f  0.0000000  0.000000000  0.00000000000  0.000000000000000
%i    0    0    0    0      0      0      0      0         0
%i    0    0    0    0      0      0      0      0         0
/*      NGA, ST. LOUIS,MO.                                  
/*   EPHEMERIS COMPUTED FROM 2 DAYS OF DATA                 
/*   EPOCHA v3 SMOOTHER                                     
/*   G1762 IERS2010 SATAF SATAPC                            
*  2019  5  6 21 50  0.00000000
P  1  17793.912961   6318.768409  18630.425882    -10.307530                    
V  1  10426.885299  21510.530950 -16774.322285     -0.086851                    
P  2 -14398.042247 -22405.707405   -186.512115   -206.818744                    
V  2   1929.229955  -2359.605661  31520.322433     -0.092340                    
P  3  17927.114522  -3852.451308  19148.022753    188.195569                    
V  3 -11473.441103  21596.557323  15140.629978     -0.002718                    
P  5  -7932.968508 -15353.229638 -20233.716093      0.992072                    
V  5  13689.818292 -21578.177573  11274.742625     -0.000845                    
P  6  -4897.614746 -23805.976421  10711.851187    212.354839                    
V  6   8377.148768  10822.036004  28031.710742     -0.098514                    
P  7  12777.799527  -8284.228105 -21488.836021    -19.086600                    
V  7  13452.445487  24483.105233  -1889.401272     -0.074744                    
P  8  24583.503316   5933.379960  -8422.734734   -142.610757                    
V  8 -10687.076220   2095.418214 -29391.791705     -0.014344                    
P  9  21454.714298  -9008.944651 -12856.862268    416.091263                    
V  9  16259.079330   2561.794545  25403.762210     -0.068755                    
P 10 -10365.121752  23856.213072   4891.042817     53.623962                    
V 10  -5627.265106   3810.609734 -31101.903286     -0.104639                    
P 11  23104.111992   6466.258238  10595.832791   -612.096547                    
V 11   9304.926048  11778.470317 -26426.523747      0.078134                    
P 12 -17389.805255   1916.263069  19712.987657    244.818921                    
V 12  13752.954533 -21502.392604  14236.754013     -0.033954                    
P 13 -18299.793055 -12756.897412 -14560.291216    -64.776447                    
V 13  18344.681473    751.342643 -23852.740741      0.016414                    
P 14   3206.788685  15526.533763  21651.557500    -81.566846                    
V 14 -26624.881090  -2262.521569   5467.413746      0.015886                    
P 15 -25542.901866  -3655.231101  -7363.831069   -314.462318                    
V 15   8695.250473  -3890.434864 -28882.848777      0.021047                    
P 16   6867.978644  14570.346931 -21212.899655    -38.083075                    
V 16 -16275.464493  20981.122656   9646.340725     -0.028824                    
P 17   6814.026187 -14067.279629  21868.061970     50.574566                    
V 17  26647.516750   2408.661524  -6967.292109      0.060875                    
P 18  18677.151329  14619.894743  11600.915454     50.839759                    
V 18   5903.348638  14512.074433 -26543.758396      0.033770                    
P 19  -1857.549482 -14797.575057  21669.596664   -322.119524                    
V 19  28025.959558   3026.636909   4488.728522      0.045398                    
P 20 -14267.724207  21641.388798  -5521.257672    524.528609                    
V 20   -582.820131  -7880.296346 -30087.124485      0.002703                    
P 21  -7944.739059  14421.991578 -20077.292446   -197.955503                    
V 21 -15439.367940 -22562.522955  -9574.618075      0.075036                    
P 22  15764.792755   4130.105754  21203.344284   -696.457018                    
V 22 -11594.473421  23862.074404   4093.007384     -0.064914                    
P 23  26717.835135   -902.430503  -1294.161457   -187.294827                    
V 23   2018.563603   3029.755179  31047.017290      0.015667                    
P 24 -19284.318148  -8985.348926  15944.398427    -65.743683                    
V 24  -8924.683535 -18543.470951 -20713.137345     -0.005429                    
P 25 -18461.218342  14391.741039  12092.366456   -753.552712                    
V 25   6199.561396 -14685.690212  26727.269950     -0.039736                    
P 26   -459.379203  22011.435486 -14748.605045    194.714547                    
V 26 -11390.014430  15132.055292  23143.201781      0.097227                    
P 27  16407.289378  11981.297939 -17372.760020   -125.518271                    
V 27 -21713.860498    796.683796 -19784.108866     -0.091833                    
P 28  12532.931183 -23002.663908   5281.764739    767.786122                    
V 28   5050.815175  -3612.937876 -31237.108945      0.000291                    
P 29 -24536.258670   4116.717047  -9339.563335    207.986463                    
V 29 -11583.080860  -2819.353787  29283.996758     -0.091793                    
P 30   4992.613754 -19016.321348 -17749.372538    -99.781535                    
V 30  11918.764329  19440.262523 -17642.835444     -0.070138                    
P 31   5156.945975  24126.803998   9220.313305     40.007022                    
V 31  -8006.809236  -9206.582104  29000.155036     -0.026350                    
P 32  -3687.455146  15142.404728  21552.539239    -99.409694                    
V 32 -27251.840474   -787.955567  -4235.321357      0.171077                    
EOF
